UNKNOWN                 
1 82829U          25179.82884480 -.00000050  00000+0 -23580-3 0  9992
2 82829  65.1006 326.4204 0166367  10.5855 143.2660 11.29093767467232
UNKNOWN                 
1 82854U          25180.30790146  .00000885  00000+0  69228-3 0  9993
2 82854  82.6898 195.0207 0131826  34.8700 326.1009 13.87159135 57081
UNKNOWN                 
1 82873U          25179.90352057  .00001893  00000+0  85536-3 0  9993
2 82873 100.0065  51.4430 0041774  28.2955 332.0476 14.23090422597499
UNKNOWN                 
1 82875U          25181.71009270  .00000809  00000+0  22151-3 0  9993
2 82875  98.6574 169.3218 0380194  36.6252 326.0279 14.14771275521130
UNKNOWN                 
1 82893U          25180.53631071  .00004121  00000+0  16589-2 0  9990
2 82893  98.9617 290.8397 0028997 163.3366 196.8774 14.28388447400222
UNKNOWN                 
1 82912U          25178.35142598  .00001252  00000+0  55510-3 0  9990
2 82912  65.8321 201.8058 0777928 345.1955  12.7410 13.26343014556980
UNKNOWN                 
1 82961U          25182.42082826  .00004661  00000+0  77043-2 0  9995
2 82961  99.9113 345.4242 0404609  35.0283 327.6746 13.19385270534015
UNKNOWN                 
1 82965U 70025    25182.67668699  .00000799  00000+0  11427-2 0  9990
2 82965 100.1235 256.8934 0002894 150.8413 209.2887 13.59591551502159
UNKNOWN                 
1 83903U          25182.30997503  .00000021  00000+0  00000+0 0  9998
2 83903   6.5876 292.0749 0124696 245.4265 281.7748  0.99111070 42030
UNKNOWN                 
1 83934U          25181.93956606 -.00000311  00000+0  00000+0 0  9992
2 83934   6.1516 298.6415 0225858 265.4835 126.0696  1.02664570 76752
UNKNOWN                 
1 83970U          25180.79910196  .00004942  00000+0  53291-2 0  9995
2 83970  18.2919  47.1866 5080801 157.5909 236.2846  5.30596203187379
UNKNOWN                 
1 84006U          25180.17510212 -.00000085  00000+0  00000+0 0  9995
2 84006  22.7807 210.2934 6090759   3.6536 359.3923  2.16230576 80628
UNKNOWN                 
1 84188U          25181.63172064  .00108326  00000+0  72288-1 0  9992
2 84188  65.0731  28.9904 3993037  35.9183 345.3580  7.15339752 29302
UNKNOWN                 
1 84236U          25182.41843016 -.00000265  00000+0 -15234-2 0  9999
2 84236   9.3165  48.7151 6883749 308.8243   7.6303  2.62451766198385
UNKNOWN                 
1 84292U          25182.21150943  .00003819  00000+0  18494-2 0  9996
2 84292  23.8665  27.9255 4585961 204.0788 125.0778  6.19910215217840
UNKNOWN                 
1 84406U          25182.16696715  .00000251  00000+0  15524-2 0  9997
2 84406 101.7148 324.2665 0041173   8.2888 174.4051 12.67101071 28462
UNKNOWN                 
1 84407U          25179.75714658 -.00000312  00000+0 -93948-2 0  9992
2 84407  19.5995  11.4621 7201086 332.3265   3.0670  2.05751258 72433
UNKNOWN                 
1 84437U          25173.45172692 -.00000001  00000+0  00000+0 0  9990
2 84437  18.8270 300.0336 7021984 181.2145 175.3173  1.97308657  9521
UNKNOWN                 
1 84575U          25179.05617069  .00000010  00000+0  27262-2 0  9998
2 84575  17.9882 214.9532 7138449 278.9476  12.9435  2.19895785 61770
UNKNOWN                 
1 84932U          25182.41307227  .00000292  00000+0  39447-2 0  9991
2 84932   2.3913 330.1330 6547832 242.1216  97.3623  2.99668513126853
UNKNOWN                 
1 85004U          25182.18429494  .00000745  00000+0  24446-3 0  9994
2 85004  98.3978 155.9551 0046315 298.0880 129.8093 14.40575617607205
UNKNOWN                 
1 85010U          25170.85772190  .00000826  00000+0  91341-3 0  9994
2 85010  99.2693  38.0886 0027214 359.4306  63.2008 13.74623879579755
UNKNOWN                 
1 85015U          25180.16748486  .00000277  00000+0  61270-4 0  9994
2 85015  74.0481 356.8947 0015631 303.2068  56.7599 14.62040552618268
UNKNOWN                 
1 85023U          25180.45159362  .00010161  00000+0  19234-2 0  9998
2 85023  99.8510 162.1869 0004415  80.5920  74.6912 14.64573454604421
UNKNOWN                 
1 85027U          25181.51972390  .00000028  00000+0  10039-3 0  9990
2 85027  66.0403 146.0924 0185329 275.5270  82.4682 13.74159828581917
UNKNOWN                 
1 85047U          25182.56020813  .00009401  00000+0  15886-1 0  9999
2 85047 102.3560 113.1036 0180588  23.9500 336.9892 13.39598168554644
UNKNOWN                 
1 85061U          25180.15623493  .00004657  00000+0  19019-1 0  9991
2 85061 102.4074 149.0423 0265377 149.0508 226.9611 12.75526536534539
UNKNOWN                 
1 85100U          25180.33769855  .00000193  00000+0  68931-4 0  9999
2 85100  74.0441 170.3723 0011161  78.9944 347.2210 14.40539126609380
UNKNOWN                 
1 85106U          25182.49597403  .00000387  00000+0  47514-3 0  9990
2 85106 100.0547 275.3398 0010575  75.9325 348.2532 13.72654042580537
UNKNOWN                 
1 85151U 86019    25181.84648122  .00009145  00000+0  14807-2 0  9996
2 85151  98.4161  39.6956 0009337 314.3569  45.6871 14.71470874455235
UNKNOWN                 
1 85210U 75052    25182.14712081  .00000611  00000+0  62339-3 0  9990
2 85210  99.8435 318.8285 0215281  16.4711 164.9772 13.71175538579592
UNKNOWN                 
1 85217U          25182.54717258  .00001253  00000+0  34853-3 0  9996
2 85217  98.0281 287.8706 0209969 263.8868  93.8362 14.35988878604289
UNKNOWN                 
1 85237U          25179.71017967  .00003415  00000+0  77279-3 0  9994
2 85237  65.5359 292.2475 0513991 104.9828 260.8715 13.98680158584972
UNKNOWN                 
1 85238U          25181.60241233  .00000014  00000+0  47406-4 0  9993
2 85238  99.0468 115.6782 0062387 287.7809 248.5138 13.88306179587929
UNKNOWN                 
1 85246U          25182.01271589  .00001037  00000+0  38401-3 0  9995
2 85246  97.9886 201.0040 0226371  69.7806 292.7559 14.20894288599679
UNKNOWN                 
1 85373U          25181.26776917  .00002363  00000+0  16537-2 0  9995
2 85373 100.4334 194.5393 0045784 316.0149 106.8190 13.99149853588984
UNKNOWN                 
1 85448U          25170.94813851 -.00000162  00000+0  00000+0 0  9991
2 85448   1.0774 281.6401 4011088 178.0910 243.7468  1.11243265    09
UNKNOWN                 
1 85449U          25171.82910985 -.00000296  00000+0  00000+0 0  9994
2 85449   1.1006 280.5353 3659924 173.8872 207.9840  1.00593983    19
UNKNOWN                 
1 85450U          25171.08391049 -.00000114  00000+0  00000+0 0  9997
2 85450   1.4725 290.0905 4667416 185.6371 285.1682  1.39151211    09
UNKNOWN                 
1 87014U          25181.81666505  .00001455  00000+0  23164-2 0  9996
2 87014 100.5080 136.9596 0045470 286.6211 102.1252 13.50917457568645
UNKNOWN                 
1 87029U 99025    25175.38105909  .00000616  00000+0  40358-3 0  9991
2 87029  98.7715 216.5832 0082514  11.8965 348.4127 14.04059242568955
UNKNOWN                 
1 87042U 00055    25181.90107413  .00000499  00000+0  32309-3 0  9994
2 87042  98.7318 230.9032 0043422 197.5591 162.4079 14.06778620530783
UNKNOWN                 
1 87051U 76126    25182.53997991  .00002298  00000+0  76545-3 0  9993
2 87051  65.7291 285.5220 0731177 215.6915 139.3105 13.44939426566499
UNKNOWN                 
1 87054U 75052    25181.88536635  .00001952  00000+0  11320-2 0  9999
2 87054 100.1051  41.1531 0015447  68.4078 291.8732 14.10168727593087
UNKNOWN                 
1 87071U 68097    25182.05648582  .00003678  00000+0  12901-2 0  9997
2 87071  61.2179  40.3956 0502594 156.2979 206.2102 13.83396948579684
UNKNOWN                 
1 87074U 77121    25179.73502973  .00000169  00000+0  25391-3 0  9992
2 87074  66.1429 303.6859 0147182 357.5282   2.5036 13.71424746580283
UNKNOWN                 
1 87113U 76126    25182.53809541  .00057893  00000+0  17362-2 0  9997
2 87113  65.6212 231.8195 0114157 284.0196  74.8271 15.27875848610676
UNKNOWN                 
1 87129U 76077    25176.19049451  .00000072  00000+0  85477-3 0  9990
2 87129 102.2641 265.1135 0030324  46.0006 314.3550 12.42736426525488
UNKNOWN                 
1 87159U          25165.66648624  .00001055  00000+0  12278-2 0  9993
2 87159  90.3455  62.9240 0111394  73.9385 287.4007 13.65552665531972
UNKNOWN                 
1 87163U 76126    25180.69815932  .00002643  00000+0  81323-3 0  9990
2 87163  65.6005 285.3961 0650080 139.0358 226.1467 13.62726657554884
UNKNOWN                 
1 87164U          25181.44900283  .00002958  00000+0  64328-3 0  9992
2 87164  65.2036  86.9316 0102622 133.8747 227.0887 14.56465591611681
UNKNOWN                 
1 87204U          25182.07539169  .00001354  00000+0  55150-3 0  9990
2 87204  98.5555  46.1947 0047972  87.1659 273.5012 14.28434407601921
UNKNOWN                 
1 87211U          25182.21480707  .00002348  00000+0  67663-3 0  9993
2 87211  99.0760 170.5423 0053187 288.8760 135.4552 14.44949689684008
UNKNOWN                 
1 87214U 70025    25181.75149554  .00001848  00000+0  16920-2 0  9993
2 87214 100.3208 164.3958 0073997 317.8683  41.6794 13.83385335577423
UNKNOWN                 
1 87237U 99025    25182.39949457  .00000222  00000+0  20186-3 0  9995
2 87237  99.2764 238.0537 0103378   9.1721  54.4089 13.91587683588907
UNKNOWN                 
1 87239U 81053    25180.13761706  .00004613  00000+0  12268-2 0  9997
2 87239  82.8748 223.8154 0021437 198.3762 161.6662 14.48292814603736
UNKNOWN                 
1 87245U 71015    25181.58134655  .00001031  00000+0  22880-3 0  9991
2 87245  65.6557 128.6020 0451480 203.0458 335.7484 14.13533296590842
UNKNOWN                 
1 87271U 71015    25181.68583597  .00009877  00000+0  18293-2 0  9992
2 87271  65.7571 318.8575 0437177 160.5663 201.2695 14.18683166588933
UNKNOWN                 
1 87280U          25181.66411052  .00000289  00000+0  56979-3 0  9994
2 87280  64.6161 283.5835 0128569 293.4340  65.3225 13.48378043511596
